{
  "type": "FeatureCollection",
  "features": [
    {
      "type": "Feature",
      "properties": {
        "norad_id": 59600,
        "name": "GSAT0227 (GALILEO 30)",
        "group": "gnss",
        "lat": 39.21113987445245,
        "lon": 141.03618059069936,
        "alt_km": 23213.06922562723,
        "timestamp": "2025-12-15T11:38:37.397411+00:00",
        "meta_object_name": "GSAT0227 (GALILEO 30)",
        "meta_object_id": "2024-079C",
        "meta_epoch": "2025-12-08T22:48:42.234912",
        "meta_mean_motion": 1.70474719,
        "meta_eccentricity": 0.0003262,
        "meta_inclination": 54.9946,
        "meta_ra_of_asc_node": 106.4003,
        "meta_arg_of_pericenter": 114.182,
        "meta_mean_anomaly": 245.816,
        "meta_ephemeris_type": 0,
        "meta_classification_type": "U",
        "meta_norad_cat_id": 59600,
        "meta_element_set_no": 999,
        "meta_rev_at_epoch": 1012,
        "meta_bstar": 0,
        "meta_mean_motion_dot": 9e-08,
        "meta_mean_motion_ddot": 0,
        "tle_line1": "1 59600U 24079C   25342.95048883  .00000009  00000+0  00000+0 0  9990",
        "tle_line2": "2 59600  54.9946 106.4003 0003262 114.1820 245.8160  1.70474719 10123"
      },
      "geometry": {
        "type": "Point",
        "coordinates": [
          141.03618059069936,
          39.21113987445245
        ]
      }
    },
    {
      "type": "Feature",
      "properties": {
        "norad_id": 61182,
        "name": "GSAT0232 (GALILEO 32)",
        "group": "gnss",
        "lat": -48.11536354089227,
        "lon": 97.04348443505572,
        "alt_km": 23222.84731290142,
        "timestamp": "2025-12-15T11:38:37.397422+00:00",
        "meta_object_name": "GSAT0232 (GALILEO 32)",
        "meta_object_id": "2024-167A",
        "meta_epoch": "2025-12-12T10:51:18.741600",
        "meta_mean_motion": 1.70473504,
        "meta_eccentricity": 0.00019431,
        "meta_inclination": 55.2408,
        "meta_ra_of_asc_node": 226.4386,
        "meta_arg_of_pericenter": 211.6313,
        "meta_mean_anomaly": 332.0573,
        "meta_ephemeris_type": 0,
        "meta_classification_type": "U",
        "meta_norad_cat_id": 61182,
        "meta_element_set_no": 999,
        "meta_rev_at_epoch": 769,
        "meta_bstar": 0,
        "meta_mean_motion_dot": 1.6e-07,
        "meta_mean_motion_ddot": 0,
        "tle_line1": "1 61182U 24167A   25346.45230025  .00000016  00000+0  00000+0 0  9994",
        "tle_line2": "2 61182  55.2408 226.4386 0001943 211.6313 332.0573  1.70473504  7695"
      },
      "geometry": {
        "type": "Point",
        "coordinates": [
          97.04348443505572,
          -48.11536354089227
        ]
      }
    },
    {
      "type": "Feature",
      "properties": {
        "norad_id": 61183,
        "name": "GSAT0226 (GALILEO 31)",
        "group": "gnss",
        "lat": -1.9909053299093618,
        "lon": -135.013403850876,
        "alt_km": 23223.827373683325,
        "timestamp": "2025-12-15T11:38:37.397433+00:00",
        "meta_object_name": "GSAT0226 (GALILEO 31)",
        "meta_object_id": "2024-167B",
        "meta_epoch": "2025-12-12T20:26:08.685024",
        "meta_mean_motion": 1.70473602,
        "meta_eccentricity": 8.42e-05,
        "meta_inclination": 55.2391,
        "meta_ra_of_asc_node": 226.433,
        "meta_arg_of_pericenter": 113.0334,
        "meta_mean_anomaly": 68.3038,
        "meta_ephemeris_type": 0,
        "meta_classification_type": "U",
        "meta_norad_cat_id": 61183,
        "meta_element_set_no": 999,
        "meta_rev_at_epoch": 767,
        "meta_bstar": 0,
        "meta_mean_motion_dot": 1.9e-07,
        "meta_mean_motion_ddot": 0,
        "tle_line1": "1 61183U 24167B   25346.85148941  .00000019  00000+0  00000+0 0  9997",
        "tle_line2": "2 61183  55.2391 226.4330 0000842 113.0334  68.3038  1.70473602  7673"
      },
      "geometry": {
        "type": "Point",
        "coordinates": [
          -135.013403850876,
          -1.9909053299093618
        ]
      }
    },
    {
      "type": "Feature",
      "properties": {
        "norad_id": 61186,
        "name": "BEIDOU-3 M25 (C47)",
        "group": "gnss",
        "lat": 34.85171440200635,
        "lon": 98.9896840073284,
        "alt_km": 21538.333877272882,
        "timestamp": "2025-12-15T11:38:37.397448+00:00",
        "meta_object_name": "BEIDOU-3 M25 (C47)",
        "meta_object_id": "2024-168B",
        "meta_epoch": "2025-12-13T09:51:38.613312",
        "meta_mean_motion": 1.86230198,
        "meta_eccentricity": 0.00054273,
        "meta_inclination": 54.6413,
        "meta_ra_of_asc_node": 308.6962,
        "meta_arg_of_pericenter": 297.8799,
        "meta_mean_anomaly": 246.8955,
        "meta_ephemeris_type": 0,
        "meta_classification_type": "U",
        "meta_norad_cat_id": 61186,
        "meta_element_set_no": 999,
        "meta_rev_at_epoch": 832,
        "meta_bstar": 0,
        "meta_mean_motion_dot": -9.7e-07,
        "meta_mean_motion_ddot": 0,
        "tle_line1": "1 61186U 24168B   25347.41086358 -.00000097  00000+0  00000+0 0  9994",
        "tle_line2": "2 61186  54.6413 308.6962 0005427 297.8799 246.8955  1.86230198  8320"
      },
      "geometry": {
        "type": "Point",
        "coordinates": [
          98.9896840073284,
          34.85171440200635
        ]
      }
    },
    {
      "type": "Feature",
      "properties": {
        "norad_id": 61187,
        "name": "BEIDOU-3 M27 (C49)",
        "group": "gnss",
        "lat": -54.63251082890536,
        "lon": -140.6615721979231,
        "alt_km": 21531.335542570887,
        "timestamp": "2025-12-15T11:38:37.397462+00:00",
        "meta_object_name": "BEIDOU-3 M27 (C49)",
        "meta_object_id": "2024-168C",
        "meta_epoch": "2025-12-14T06:33:38.742048",
        "meta_mean_motion": 1.86230381,
        "meta_eccentricity": 0.00024262,
        "meta_inclination": 54.6359,
        "meta_ra_of_asc_node": 308.6501,
        "meta_arg_of_pericenter": 337.7802,
        "meta_mean_anomaly": 200.2001,
        "meta_ephemeris_type": 0,
        "meta_classification_type": "U",
        "meta_norad_cat_id": 61187,
        "meta_element_set_no": 999,
        "meta_rev_at_epoch": 581,
        "meta_bstar": 0,
        "meta_mean_motion_dot": -9.9e-07,
        "meta_mean_motion_ddot": 0,
        "tle_line1": "1 61187U 24168C   25348.27336507 -.00000099  00000+0  00000+0 0  9996",
        "tle_line2": "2 61187  54.6359 308.6501 0002426 337.7802 200.2001  1.86230381  5815"
      },
      "geometry": {
        "type": "Point",
        "coordinates": [
          -140.6615721979231,
          -54.63251082890536
        ]
      }
    },
    {
      "type": "Feature",
      "properties": {
        "norad_id": 62339,
        "name": "GPS BIII-7  (PRN 01)",
        "group": "gnss",
        "lat": 54.323315788410504,
        "lon": 59.76869438650535,
        "alt_km": 20180.034606223355,
        "timestamp": "2025-12-15T11:38:37.397474+00:00",
        "meta_object_name": "GPS BIII-7  (PRN 01)",
        "meta_object_id": "2024-242A",
        "meta_epoch": "2025-12-14T08:53:45.951936",
        "meta_mean_motion": 2.00568038,
        "meta_eccentricity": 0.00123465,
        "meta_inclination": 54.9231,
        "meta_ra_of_asc_node": 341.6736,
        "meta_arg_of_pericenter": 345.1042,
        "meta_mean_anomaly": 13.136,
        "meta_ephemeris_type": 0,
        "meta_classification_type": "U",
        "meta_norad_cat_id": 62339,
        "meta_element_set_no": 999,
        "meta_rev_at_epoch": 754,
        "meta_bstar": 0,
        "meta_mean_motion_dot": -9.1e-07,
        "meta_mean_motion_ddot": 0,
        "tle_line1": "1 62339U 24242A   25348.37067074 -.00000091  00000+0  00000+0 0  9992",
        "tle_line2": "2 62339  54.9231 341.6736 0012346 345.1042  13.1360  2.00568038  7546"
      },
      "geometry": {
        "type": "Point",
        "coordinates": [
          59.76869438650535,
          54.323315788410504
        ]
      }
    },
    {
      "type": "Feature",
      "properties": {
        "norad_id": 62850,
        "name": "NVS-02 (IRNSS-1K)",
        "group": "gnss",
        "lat": -6.45307720401716,
        "lon": 163.81634923146524,
        "alt_km": 35554.7529244556,
        "timestamp": "2025-12-15T11:38:37.397486+00:00",
        "meta_object_name": "NVS-02 (IRNSS-1K)",
        "meta_object_id": "2025-020A",
        "meta_epoch": "2025-12-14T20:17:55.651200",
        "meta_mean_motion": 2.17596683,
        "meta_eccentricity": 0.73476678,
        "meta_inclination": 20.9774,
        "meta_ra_of_asc_node": 326.8973,
        "meta_arg_of_pericenter": 27.6007,
        "meta_mean_anomaly": 357.0889,
        "meta_ephemeris_type": 0,
        "meta_classification_type": "U",
        "meta_norad_cat_id": 62850,
        "meta_element_set_no": 999,
        "meta_rev_at_epoch": 696,
        "meta_bstar": 0.00033726091,
        "meta_mean_motion_dot": 5.31e-06,
        "meta_mean_motion_ddot": 0,
        "tle_line1": "1 62850U 25020A   25348.84578300  .00000531  00000+0  33726-3 0  9999",
        "tle_line2": "2 62850  20.9774 326.8973 7347667  27.6007 357.0889  2.17596683  6960"
      },
      "geometry": {
        "type": "Point",
        "coordinates": [
          163.81634923146524,
          -6.45307720401716
        ]
      }
    }
  ]
}